[{"OBJECT_NAME":"STARLINK-31244","OBJECT_ID":"2024-019D","EPOCH":"2026-03-09T13:29:07.131840","MEAN_MOTION":15.27599347,"ECCENTRICITY":0.00021016,"INCLINATION":43.0044,"RA_OF_ASC_NODE":249.5832,"ARG_OF_PERICENTER":278.4832,"MEAN_ANOMALY":81.5781,"EPHEMERIS_TYPE":0,"CLASSIFICATION_TYPE":"U","NORAD_CAT_ID":58856,"ELEMENT_SET_NO":999,"REV_AT_EPOCH":11906,"BSTAR":-6.9451264e-5,"MEAN_MOTION_DOT":-2.174e-5,"MEAN_MOTION_DDOT":0},{"OBJECT_NAME":"CZ-4C R\/B","OBJECT_ID":"2022-069B","EPOCH":"2026-03-09T22:08:25.149120","MEAN_MOTION":15.31915595,"ECCENTRICITY":0.00471341,"INCLINATION":97.9961,"RA_OF_ASC_NODE":42.6953,"ARG_OF_PERICENTER":87.2467,"MEAN_ANOMALY":273.4166,"EPHEMERIS_TYPE":0,"CLASSIFICATION_TYPE":"U","NORAD_CAT_ID":52913,"ELEMENT_SET_NO":999,"REV_AT_EPOCH":20482,"BSTAR":0.00043675127,"MEAN_MOTION_DOT":0.00013855,"MEAN_MOTION_DDOT":0}]
